ESTCUBE 1               
1 39161U 13021C   22013.17951965  .00000301  00000+0  54943-4 0  9990
2 39161  97.9259  94.3981 0008808 192.2098 167.8916 14.72633135466618
FENGYUN 3C              
1 39260U 13052A   22013.44118266  .00000007  00000+0  24558-4 0  9995
2 39260  98.4743  49.2575 0011367   8.0030 352.1328 14.15893496429984
CASSIOPE                
1 39265U 13055A   22013.55787594  .00005568  00000+0  15023-3 0  9994
2 39265  80.9662  71.1181 0639045  56.0775 309.9496 14.34862701430096
ZACUBE-1 (TSHEPISOSAT)  
1 39417U 13066B   22013.48400577  .00000559  00000+0  75281-4 0  9998
2 39417  97.6174 352.2323 0058000 191.2379 168.7544 14.81769763440178
CINEMA-3 (KHUSAT-2)     
1 39426U 13066L   22013.35725578  .00000514  00000+0  87248-4 0  9992
2 39426  97.7830 320.2215 0104292  13.4619 346.9332 14.69828194436484
TRITON-1                
1 39427U 13066M   22013.54535233  .00000690  00000+0  11605-3 0  9999
2 39427  97.8001 316.2710 0113893  40.2354 320.7213 14.68457343436045
DELFI-N3XT              
1 39428U 13066N   22013.40091368  .00001114  00000+0  18082-3 0  9999
2 39428  97.8027 314.6458 0120348  53.6865 307.5382 14.68354597435779
GOMX-1                  
1 39430U 13066Q   22013.56477857  .00000285  00000+0  59979-4 0  9999
2 39430  97.8159 289.5868 0150127 172.5047 187.8455 14.59805743433697
BRITE-PL1 (LEM)         
1 39431U 13066R   22013.57530615  .00000152  00000+0  42733-4 0  9996
2 39431  97.7205 240.8535 0201705 348.8158  10.8586 14.47212138429962
ICUBE-1                 
1 39432U 13066S   22013.47866809  .00000837  00000+0  88714-4 0  9992
2 39432  97.4691  25.3899 0033018  63.4319 297.0278 14.91209066441604
HUMSAT-D                
1 39433U 13066T   22013.54795568  .00001256  00000+0  12388-3 0  9993
2 39433  97.4576  32.8168 0031123  40.8008 319.5535 14.93333395442093
VELOX-PII               
1 39438U 13066Y   22013.46534545  .00000498  00000+0  72682-4 0  9996
2 39438  97.6713 343.1330 0068684 240.8047 118.6282 14.78432166438102
FIRST-MOVE              
1 39439U 13066Z   22013.48450725  .00001099  00000+0  13656-3 0  9999
2 39439  97.6206 354.1781 0063771 187.9800 172.0406 14.83090501439070
CUBEBUG-2 (LO-74)       
1 39440U 13066AA  22013.42309034  .00000661  00000+0  97694-4 0  9990
2 39440  97.7058 337.7586 0078028 274.5776  84.6525 14.76487988437400
NEE-02 KRYSAOR          
1 39441U 13066AB  22013.43608771  .00000491  00000+0  76268-4 0  9997
2 39441  97.7164 335.0294 0079798 287.1832  72.0654 14.75359696437175
FUNCUBE-1 (AO-73)       
1 39444U 13066AE  22013.47162672  .00000677  00000+0  87920-4 0  9992
2 39444  97.6064 354.6121 0057259 180.3886 179.7294 14.82726730438556
HINCUBE                 
1 39445U 13066AF  22013.50385833  .00000647  00000+0  84593-4 0  9993
2 39445  97.6080 354.4775 0057235 182.3073 177.7886 14.82549232438502
UWE-3                   
1 39446U 13066AG  22013.44124100  .00000567  00000+0  80699-4 0  9999
2 39446  97.6649 344.4699 0068085 234.0639 125.4244 14.79028831437540
AIST-1 (RS-41)          
1 39492U 13078C   22013.54983249  .00000324  00000+0  32434-4 0  9996
2 39492  82.4188  24.8037 0018045 259.6114 100.3082 14.88161394436743
SPROUT                  
1 39770U 14029E   22013.58249318  .00001776  00000+0  19405-3 0  9992
2 39770  97.9313 129.9630 0007764 230.8419 129.2103 14.89154331414603
UNISAT-6                
1 40012U 14033C   22013.54483969  .00000517  00000+0  83149-4 0  9995
2 40012  97.6616 209.7971 0056742 301.3743  58.1922 14.74501235407150
BUGSAT-1 (TITA)         
1 40014U 14033E   22013.59658028  .00001228  00000+0  11413-3 0  9996
2 40014  98.1321   5.8564 0030713 186.9511 173.1289 14.96042704412980
DUCHIFAT-1              
1 40021U 14033M   22013.38122659  .00001253  00000+0  12998-3 0  9994
2 40021  97.9957 321.0884 0012279 185.9258 174.1816 14.91797489411575
NANOSATC-BR1            
1 40024U 14033Q   22013.54501425  .00000884  00000+0  95636-4 0  9997
2 40024  97.9713 315.3900 0011551 191.3629 168.7330 14.90823329410894
QB50P1                  
1 40025U 14033R   22013.54083986  .00000768  00000+0  86019-4 0  9991
2 40025  97.9493 309.9549 0011602 201.1839 158.8899 14.89760798411202
DTUSAT-2                
1 40030U 14033W   22013.54146427  .00000775  00000+0  87698-4 0  9999
2 40030  97.9290 305.8709 0011140 197.3581 162.7256 14.89283878411090
QB50P2                  
1 40032U 14033Y   22013.37586702  .00000734  00000+0  83501-4 0  9990
2 40032  97.9295 305.7154 0011089 198.9910 161.0895 14.89247044410539
POLYITAN-1              
1 40042U 14033AJ  22013.54887935  .00001008  00000+0  11137-3 0  9992
2 40042  97.9592 310.9694 0013959 193.4829 166.6017 14.89635901411096
TIGRISAT                
1 40043U 14033AK  22013.53967638  .00000412  00000+0  67476-4 0  9997
2 40043  97.6571 211.1486 0058380 298.9314  60.6048 14.74684857406795
AISAT                   
1 40054U 14034B   22013.39682784  .00001034  00000+0  14813-3 0  9997
2 40054  98.3418 178.8701 0013746  92.2448 268.0336 14.78811666406556
CANX-4                  
1 40055U 14034C   22013.36122729  .00000295  00000+0  51700-4 0  9998
2 40055  98.3321 165.4876 0015164 128.8005 231.4560 14.75171719405856
CANX-5                  
1 40056U 14034D   22013.36708944  .00000287  00000+0  50498-4 0  9992
2 40056  98.3321 165.4766 0015179 129.0343 231.2219 14.75164735396666
VELOX-I                 
1 40057U 14034E   22013.56269733  .00000702  00000+0  10388-3 0  9998
2 40057  98.3470 180.1565 0011969 104.4559 255.7989 14.78476046406584
METEOR-M 2              
1 40069U 14037A   22013.38222496 -.00000025  00000+0  75466-5 0  9998
2 40069  98.4437  38.1693 0006778  59.1617 301.0229 14.20694859389840
DX1                     
1 40071U 14037C   22013.55995057  .00000220  00000+0  35418-4 0  9998
2 40071  98.4284 234.4012 0009619  92.5472 267.6849 14.81620602406405
UKUBE-1                 
1 40074U 14037F   22013.58669065  .00000583  00000+0  75692-4 0  9991
2 40074  98.4020 246.0092 0005539  68.7863 291.3934 14.84823051407089
FIREBIRD 3              
1 40377U 15003B   22013.46484145  .00009215  00000+0  31371-3 0  9998
2 40377  99.1125 204.3803 0111124 187.7679 172.1837 15.24929948384765
FIREBIRD 4              
1 40378U 15003C   22013.49879517  .00008642  00000+0  29386-3 0  9999
2 40378  99.1129 204.6002 0111133 187.3843 172.5759 15.24995514384773
GRIFEX                  
1 40379U 15003D   22013.43069610  .00006635  00000+0  25700-3 0  9995
2 40379  99.1146 191.9530 0123040 225.3588 133.7559 15.19820808384051
CP10 (EXOCUBE)          
1 40380U 15003E   22013.43529688  .00004825  00000+0  20015-3 0  9996
2 40380  99.1178 185.4931 0129189 247.0496 111.7057 15.17196798383634
DEORBITSAIL             
1 40719U 15032E   22013.48107872  .00000891  00000+0  13105-3 0  9997
2 40719  97.8029 256.8612 0016724 143.0255 217.2112 14.77708275350998
NUDT-PHONESAT           
1 40900U 15049B   22013.53334455  .00007849  00000+0  28016-3 0  9999
2 40900  97.4128  31.4961 0012739 111.2731  12.3431 15.29066600350892
XW-2A                   
1 40903U 15049E   22013.48956593  .00007348  00000+0  14319-3 0  9994
2 40903  97.2088  72.2713 0010529 336.1328 137.0124 15.47778441355253
XW-2C                   
1 40906U 15049H   22013.58185922  .00001796  00000+0  92934-4 0  9999
2 40906  97.4920  18.4589 0014255 170.7179 308.7393 15.17449804349424
XW-2D                   
1 40907U 15049J   22013.52621215  .00002226  00000+0  11305-3 0  9995
2 40907  97.4913  18.2830 0013717 166.4348 313.0385 15.17867362349452
LILACSAT-2              
1 40908U 15049K   22013.57457404  .00000866  00000+0  50046-4 0  9992
2 40908  97.5126  15.8532 0015058 186.7896 290.3732 15.14854206349032
XW-2E                   
1 40909U 15049L   22013.57710804  .00003128  00000+0  14509-3 0  9996
2 40909  97.4672  22.6058 0013349 149.1983 329.2056 15.20723413349851
XW-2F                   
1 40910U 15049M   22013.58389869  .00003137  00000+0  14760-3 0  9991
2 40910  97.4747  21.7148 0014530 150.5414 327.5743 15.20216938349633
XW-2B                   
1 40911U 15049N   22013.54089906  .00002227  00000+0  11340-3 0  9997
2 40911  97.4904  18.9435 0013538 167.4905 311.1302 15.17775363349341
KAITUO 1B               
1 40912U 15049P   22013.55057612  .00003684  00000+0  15963-3 0  9991
2 40912  97.4424  26.0556 0015282 121.7153 356.4120 15.22912781350153
TIANWANG 1A (TW-1A)     
1 40928U 15051D   22013.56491407  .00012637  00000+0  22854-3 0  9991
2 40928  97.0613  38.6826 0006741 234.0842 247.7928 15.49788342354186
LAPAN-A2                
1 40931U 15052B   22013.32043605  .00000872  00000+0  32291-4 0  9998
2 40931   5.9976 195.6862 0012602 132.0417 228.0758 14.76720349340373
LQSAT                   
1 40958U 15057A   22013.62246570  .00000066  00000+0  17566-4 0  9994
2 40958  97.7750  66.5849 0019594  98.6018 261.7421 14.73237217337194
ATHENOXAT 1             
1 41168U 15077C   22013.09224537  .00005052  00000+0  21142-3 0  9994
2 41168  14.9901 158.2728 0010028 216.7850 119.1700 15.17202479336648
GALASSIA                
1 41170U 15077E   22012.73190062  .00004782  00000+0  19787-3 0  9993
2 41170  14.9878 151.3038 0011506 246.2911 113.6203 15.17241084336518
VELOX-II                
1 41171U 15077F   22011.24453757  .00003462  00000+0  15054-3 0  9999
2 41171  14.9900 228.1498 0008291  78.3229 281.8022 15.13490523335742
CHUBUSAT-2              
1 41338U 16012B   22013.45973677  .00000852  00000+0  58813-4 0  9998
2 41338  31.0030 290.2883 0013373  55.2697 304.9196 15.00786388324176
CHUBUSAT-3              
1 41339U 16012C   22013.46333867  .00000708  00000+0  47590-4 0  9991
2 41339  31.0116 287.2949 0013299  62.8137 297.3880 15.00911727324173
HORYU-4                 
1 41340U 16012D   22013.41046275  .00001319  00000+0  90871-4 0  9991
2 41340  31.0041 268.4502 0013387  99.0544 261.1607 15.02319932324381
